[{"OBJECT_NAME":"STARLINK-3159","OBJECT_ID":"2021-104H","EPOCH":"2026-03-09T15:20:30.727392","MEAN_MOTION":15.08841039,"ECCENTRICITY":0.000111,"INCLINATION":53.2174,"RA_OF_ASC_NODE":219.3501,"ARG_OF_PERICENTER":90.4458,"MEAN_ANOMALY":269.6662,"EPHEMERIS_TYPE":0,"CLASSIFICATION_TYPE":"U","NORAD_CAT_ID":49415,"ELEMENT_SET_NO":999,"REV_AT_EPOCH":23875,"BSTAR":-2.3118e-5,"MEAN_MOTION_DOT":-6.56e-6,"MEAN_MOTION_DDOT":0},{"OBJECT_NAME":"OBJECT BE","OBJECT_ID":"2018-099BE","EPOCH":"2026-03-09T15:10:24.322944","MEAN_MOTION":15.09972337,"ECCENTRICITY":0.0006427,"INCLINATION":97.4031,"RA_OF_ASC_NODE":111.7891,"ARG_OF_PERICENTER":340.4925,"MEAN_ANOMALY":19.6058,"EPHEMERIS_TYPE":0,"CLASSIFICATION_TYPE":"U","NORAD_CAT_ID":43810,"ELEMENT_SET_NO":999,"REV_AT_EPOCH":39698,"BSTAR":0.00027209,"MEAN_MOTION_DOT":4.358e-5,"MEAN_MOTION_DDOT":0}]
